[{"OBJECT_NAME":"CHUANGXIN 1-03 (CX-1-03)","OBJECT_ID":"2011-068A","EPOCH":"2026-03-09T23:48:05.343264","MEAN_MOTION":14.30514213,"ECCENTRICITY":0.00158467,"INCLINATION":98.7066,"RA_OF_ASC_NODE":86.521,"ARG_OF_PERICENTER":50.1728,"MEAN_ANOMALY":9.9604,"EPHEMERIS_TYPE":0,"CLASSIFICATION_TYPE":"U","NORAD_CAT_ID":37930,"ELEMENT_SET_NO":999,"REV_AT_EPOCH":74647,"BSTAR":-1.9220958e-5,"MEAN_MOTION_DOT":-9.5e-7,"MEAN_MOTION_DDOT":0},{"OBJECT_NAME":"DMSP 5D-3 F19 DEB","OBJECT_ID":"2014-015E","EPOCH":"2026-03-09T13:46:46.097760","MEAN_MOTION":14.33684048,"ECCENTRICITY":0.0007395,"INCLINATION":98.6197,"RA_OF_ASC_NODE":91.7767,"ARG_OF_PERICENTER":2.5558,"MEAN_ANOMALY":357.5663,"EPHEMERIS_TYPE":0,"CLASSIFICATION_TYPE":"U","NORAD_CAT_ID":43415,"ELEMENT_SET_NO":999,"REV_AT_EPOCH":61386,"BSTAR":0.0018564,"MEAN_MOTION_DOT":5.11e-5,"MEAN_MOTION_DDOT":0}]
